[{"OBJECT_NAME":"STARLINK-30836","OBJECT_ID":"2023-170R","EPOCH":"2026-03-09T22:00:01.999584","MEAN_MOTION":15.26882278,"ECCENTRICITY":0.00016104,"INCLINATION":43.0035,"RA_OF_ASC_NODE":192.7696,"ARG_OF_PERICENTER":280.2971,"MEAN_ANOMALY":170.7164,"EPHEMERIS_TYPE":0,"CLASSIFICATION_TYPE":"U","NORAD_CAT_ID":58221,"ELEMENT_SET_NO":999,"REV_AT_EPOCH":578,"BSTAR":0.0014588307,"MEAN_MOTION_DOT":0.0003925,"MEAN_MOTION_DDOT":0},{"OBJECT_NAME":"TOMORROW-S3","OBJECT_ID":"2024-247R","EPOCH":"2026-03-09T11:56:51.820800","MEAN_MOTION":15.27672122,"ECCENTRICITY":3.967e-5,"INCLINATION":44.9999,"RA_OF_ASC_NODE":117.9871,"ARG_OF_PERICENTER":320.9462,"MEAN_ANOMALY":39.1392,"EPHEMERIS_TYPE":0,"CLASSIFICATION_TYPE":"U","NORAD_CAT_ID":62392,"ELEMENT_SET_NO":999,"REV_AT_EPOCH":6770,"BSTAR":0.00028857954,"MEAN_MOTION_DOT":7.664e-5,"MEAN_MOTION_DDOT":0}]
